NORAD_CAT_ID,OBJECT_NAME,OBJECT_TYPE,EPOCH,MEAN_MOTION,ECCENTRICITY,INCLINATION,RA_OF_ASC_NODE,ARG_OF_PERICENTER,MEAN_ANOMALY,BSTAR,MEAN_MOTION_DOT,MEAN_MOTION_DDOT,TLE_LINE0,TLE_LINE1,TLE_LINE2,SEMIMAJOR_AXIS,PERIOD,APOGEE,PERIGEE,DECAYED
54087.0,STARLINK-5184,PAYLOAD,2024-08-03 20:56:14,15.0885621,0.000153,53.2164,70.1298,95.543,264.5737,0.0001721,2.453e-05,0.0,0 STARLINK-5184,1 54087U 22136AN  24216.87238743  .00002453  00000-0  17210-3 0  9993,2 54087  53.2164  70.1298 0001530  95.5430 264.5737 15.08856210 99478,6917.831,95.437,540.754,538.637,0.0
54087.0,STARLINK-5184,PAYLOAD,2024-08-04 14:25:29,15.08842489,0.0001614,53.2159,66.8589,84.6095,275.5081,0.00030694,4.601e-05,0.0,0 STARLINK-5184,1 54087U 22136AN  24217.60103610  .00004601  00000-0  30694-3 0  9997,2 54087  53.2159  66.8589 0001614  84.6095 275.5081 15.08842489 99114,6917.873,95.437,540.854,538.621,0.0
54087.0,STARLINK-5184,PAYLOAD,2024-08-04 20:47:01,15.08857479,0.0001522,53.2163,65.6689,79.7648,280.3516,0.00045778,7.009e-05,0.0,0 STARLINK-5184,1 54087U 22136AN  24217.86599064  .00007009  00000-0  45778-3 0  9991,2 54087  53.2163  65.6689 0001522  79.7648 280.3516 15.08857479 99622,6917.827,95.436,540.745,538.639,0.0
54087.0,STARLINK-5184,PAYLOAD,2024-08-05 20:37:48,15.08845287,0.0001523,53.2162,61.2084,86.479,273.6376,-2.836e-05,-7.39e-06,0.0,0 STARLINK-5184,1 54087U 22136AN  24218.85958991 -.00000739  00000-0 -28360-4 0  9993,2 54087  53.2162  61.2084 0001523  86.4790 273.6376 15.08845287 99775,6917.864,95.437,540.783,538.676,0.0
54087.0,STARLINK-5184,PAYLOAD,2024-08-06 06:10:07,15.08838181,0.0001478,53.2164,59.4239,83.1266,276.9894,-6.7358e-06,-3.95e-06,0.0,0 STARLINK-5184,1 54087U 22136AN  24219.25703307 -.00000395  00000-0 -67358-5 0  9996,2 54087  53.2164  59.4239 0001478  83.1266 276.9894 15.08838181 99832,6917.886,95.438,540.773,538.728,0.0
54087.0,STARLINK-5184,PAYLOAD,2024-08-06 14:07:03,15.08830878,0.0001412,53.2165,57.9366,90.8811,269.2342,-0.00015067,-2.684e-05,0.0,0 STARLINK-5184,1 54087U 22136AN  24219.58823614 -.00002684  00000-0 -15067-3 0  9997,2 54087  53.2165  57.9366 0001412  90.8811 269.2342 15.08830878 99418,6917.908,95.438,540.75,538.796,0.0
54087.0,STARLINK-5184,PAYLOAD,2024-08-06 18:53:13,15.08835158,0.0001431,53.2169,57.0451,102.3768,257.7385,-3.594e-05,-8.6e-06,0.0,0 STARLINK-5184,1 54087U 22136AN  24219.78695633 -.00000860  00000-0 -35940-4 0  9994,2 54087  53.2169  57.0451 0001431 102.3768 257.7385 15.08835158 99447,6917.895,95.438,540.75,538.77,0.0
54087.0,STARLINK-5184,PAYLOAD,2024-08-07 18:43:59,15.08846437,0.0001314,53.2166,52.5864,109.9224,250.191,0.00022133,3.237e-05,0.0,0 STARLINK-5184,1 54087U 22136AN  24220.78055493  .00003237  00000-0  22133-3 0  9998,2 54087  53.2166  52.5864 0001314 109.9224 250.1910 15.08846437100066,6917.861,95.437,540.635,538.817,0.0
54087.0,STARLINK-5184,PAYLOAD,2024-08-08 12:13:14,15.08843975,0.0001305,53.2163,49.3156,111.1687,248.9445,0.0002554,3.78e-05,0.0,0 STARLINK-5184,1 54087U 22136AN  24221.50919742  .00003780  00000-0  25540-3 0  9993,2 54087  53.2163  49.3156 0001305 111.1687 248.9445 15.08843975 99709,6917.868,95.437,540.636,538.83,0.0
54087.0,STARLINK-5184,PAYLOAD,2024-08-08 20:10:10,15.08852335,0.0001457,53.217,47.8293,77.3559,282.7596,0.00040692,6.196e-05,0.0,0 STARLINK-5184,1 54087U 22136AN  24221.84039643  .00006196  00000-0  40692-3 0  9992,2 54087  53.2170  47.8293 0001457  77.3559 282.7596 15.08852335100224,6917.843,95.437,540.716,538.7,0.0
54087.0,STARLINK-5184,PAYLOAD,2024-08-09 12:04:01,15.08842869,0.0001373,53.216,44.8569,82.6514,277.4634,0.00010995,1.462e-05,0.0,0 STARLINK-5184,1 54087U 22136AN  24222.50279782  .00001462  00000-0  10995-3 0  9990,2 54087  53.2160  44.8569 0001373  82.6514 277.4634 15.08842869100329,6917.872,95.437,540.686,538.787,0.0
54087.0,STARLINK-5184,PAYLOAD,2024-08-09 21:36:19,15.08855005,0.0001516,53.2166,43.0689,114.6915,245.4236,0.00031126,4.671e-05,0.0,0 STARLINK-5184,1 54087U 22136AN  24222.90023107  .00004671  00000-0  31126-3 0  9996,2 54087  53.2166  43.0689 0001516 114.6915 245.4236 15.08855005 99910,6917.835,95.437,540.748,538.651,0.0
54087.0,STARLINK-5184,PAYLOAD,2024-08-10 11:54:48,15.08838013,0.0001442,53.2169,40.3921,94.5963,265.5194,-5.3624e-05,-1.141e-05,0.0,0 STARLINK-5184,1 54087U 22136AN  24223.49639942 -.00001141  00000-0 -53624-4 0  9990,2 54087  53.2169  40.3921 0001442  94.5963 265.5194 15.08838013100479,6917.886,95.438,540.749,538.754,0.0
54087.0,STARLINK-5184,PAYLOAD,2024-08-10 18:16:21,15.08844832,0.0001485,53.2177,39.2056,88.7279,271.3883,0.0001413,1.962e-05,0.0,0 STARLINK-5184,1 54087U 22136AN  24223.76135809  .00001962  00000-0  14130-3 0  9990,2 54087  53.2177  39.2056 0001485  88.7279 271.3883 15.08844832100045,6917.866,95.437,540.758,538.703,0.0
54087.0,STARLINK-5184,PAYLOAD,2024-08-11 18:07:08,15.08850589,0.0001143,53.215,34.7455,78.3194,281.7926,0.00049084,7.535e-05,0.0,0 STARLINK-5184,1 54087U 22136AN  24224.75495999  .00007535  00000-0  49084-3 0  9997,2 54087  53.2150  34.7455 0001143  78.3194 281.7926 15.08850589100668,6917.848,95.437,540.504,538.922,0.0
54087.0,STARLINK-5184,PAYLOAD,2024-08-11 21:17:54,15.08858859,0.0001379,53.2172,34.1474,86.8085,273.3065,0.0010028,0.00015716,0.0,0 STARLINK-5184,1 54087U 22136AN  24224.88743830  .00015716  00000-0  10028-2 0  9996,2 54087  53.2172  34.1474 0001379  86.8085 273.3065 15.08858859100211,6917.823,95.436,540.642,538.734,0.0
54087.0,STARLINK-5184,PAYLOAD,2024-08-12 11:36:23,15.08847751,0.0001306,53.2174,31.4715,105.6551,254.4585,0.00073153,0.00011376,0.0,0 STARLINK-5184,1 54087U 22136AN  24225.48360034  .00011376  00000-0  73153-3 0  9991,2 54087  53.2174  31.4715 0001306 105.6551 254.4585 15.08847751100776,6917.857,95.437,540.625,538.818,0.0
54087.0,STARLINK-5184,PAYLOAD,2024-08-12 19:33:18,15.0889287,0.0001484,53.2152,29.9871,96.6978,263.4183,0.0023665,0.00037631,0.0,0 STARLINK-5184,1 54087U 22136AN  24225.81479233  .00037631  00000-0  23665-2 0  9994,2 54087  53.2152  29.9871 0001484  96.6978 263.4183 15.08892870100828,6917.719,95.434,540.61,538.557,0.0
54087.0,STARLINK-5184,PAYLOAD,2024-08-13 03:30:14,15.0884038,0.000227,53.2192,28.5006,96.1026,264.0225,0.00012824,1.753e-05,0.0,0 STARLINK-5184,1 54087U 22136AN  24226.14599945  .00001753  00000-0  12824-3 0  9996,2 54087  53.2192  28.5006 0002270  96.1026 264.0225 15.08840380100878,6917.879,95.438,541.315,538.174,0.0
54087.0,STARLINK-5184,PAYLOAD,2024-08-13 11:27:11,15.08784305,9.06e-05,53.2169,27.0131,58.6859,301.4221,-0.0011894,-0.00019138,0.0,0 STARLINK-5184,1 54087U 22136AN  24226.47721300 -.00019138  00000-0 -11894-2 0  9997,2 54087  53.2169  27.0131 0000906  58.6859 301.4221 15.08784305100928,6918.051,95.441,540.542,539.289,0.0
54087.0,STARLINK-5184,PAYLOAD,2024-08-13 17:48:44,15.0877675,0.0001215,53.2164,25.8251,69.99,290.1223,0.00068643,0.00010635,0.0,0 STARLINK-5184,1 54087U 22136AN  24226.74218495  .00010635  00000-0  68643-3 0  9999,2 54087  53.2164  25.8251 0001215  69.9900 290.1223 15.08776750100491,6918.074,95.442,540.779,539.098,0.0
54087.0,STARLINK-5184,PAYLOAD,2024-08-14 03:21:04,15.08796393,0.0002416,53.2196,24.0383,75.639,284.487,0.0011702,0.00018363,0.0,0 STARLINK-5184,1 54087U 22136AN  24227.13963800  .00018363  00000-0  11702-2 0  9999,2 54087  53.2196  24.0383 0002416  75.6390 284.4870 15.08796393101023,6918.014,95.44,541.55,538.207,0.0
54087.0,STARLINK-5184,PAYLOAD,2024-08-14 09:42:36,15.08847341,9.32e-05,53.2145,22.8488,22.504,337.5993,0.002049,0.00032479,0.0,0 STARLINK-5184,1 54087U 22136AN  24227.40459018  .00032479  00000-0  20490-2 0  9998,2 54087  53.2145  22.8488 0000932  22.5040 337.5993 15.08847341101063,6917.858,95.437,540.368,539.078,0.0
54087.0,STARLINK-5184,PAYLOAD,2024-08-14 14:28:45,15.08874118,0.0001125,53.216,21.9566,50.1246,309.9845,0.0028594,0.00045556,0.0,0 STARLINK-5184,1 54087U 22136AN  24227.60330740  .00045556  00000-0  28594-2 0  9993,2 54087  53.2160  21.9566 0001125  50.1246 309.9845 15.08874118100629,6917.776,95.435,540.419,538.863,0.0
54087.0,STARLINK-5184,PAYLOAD,2024-08-14 17:39:31,15.08885865,0.0001147,53.2169,21.3622,44.6633,315.4451,0.0027135,0.00043217,0.0,0 STARLINK-5184,1 54087U 22136AN  24227.73578393  .00043217  00000-0  27135-2 0  9997,2 54087  53.2169  21.3622 0001147  44.6633 315.4451 15.08885865101118,6917.74,95.435,540.399,538.812,0.0
54087.0,STARLINK-5184,PAYLOAD,2024-08-15 03:11:50,15.08875363,9.19e-05,53.2166,19.5821,53.055,307.0527,0.0022227,0.00035298,0.0,0 STARLINK-5184,1 54087U 22136AN  24228.13321796  .00035298  00000-0  22227-2 0  9992,2 54087  53.2166  19.5821 0000919  53.0550 307.0527 15.08875363101172,6917.772,95.435,540.273,539.002,0.0
54087.0,STARLINK-5184,PAYLOAD,2024-08-16 03:02:37,15.08872361,0.0003454,53.2179,15.1175,75.0433,285.0942,0.0012989,0.00020464,0.0,0 STARLINK-5184,1 54087U 22136AN  24229.12681862  .00020464  00000-0  12989-2 0  9998,2 54087  53.2179  15.1175 0003454  75.0433 285.0942 15.08872361101329,6917.781,95.436,542.036,537.257,0.0
54087.0,STARLINK-5184,PAYLOAD,2024-08-16 18:56:27,15.08848901,0.000166,53.2129,12.1437,74.0348,286.0827,0.00082756,0.0001291,0.0,0 STARLINK-5184,1 54087U 22136AN  24229.78920925  .00012910  00000-0  82756-3 0  9993,2 54087  53.2129  12.1437 0001660  74.0348 286.0827 15.08848901101420,6917.853,95.437,540.867,538.57,0.0
54087.0,STARLINK-5184,PAYLOAD,2024-08-17 18:47:16,15.08848461,0.0006085,53.2132,7.6827,66.3979,293.7651,0.0014942,0.00023585,0.0,0 STARLINK-5184,1 54087U 22136AN  24230.78283515  .00023585  00000-0  14942-2 0  9993,2 54087  53.2132   7.6827 0006085  66.3979 293.7651 15.08848461101573,6917.855,95.437,543.929,535.51,0.0
54087.0,STARLINK-5184,PAYLOAD,2024-08-18 06:00:00,15.08826953,0.0001072,53.2171,5.5868,81.3246,297.9152,0.0046033,0.00073714,0.0,0 STARLINK-5184,1 54087U 22136AN  24231.25001157  .00073714  00000-0  46033-2 0  9991,2 54087  53.2171   5.5868 0001072  81.3246 297.9152 15.08826953  5851,6917.92,95.438,540.527,539.044,0.0
